SZ-13 MODULE            
1 52260U 21092C   22135.46717751  .00034517  00000+0  32853-3 0  9993
2 52260  41.4821  56.7209 0011056 251.0977 108.8665 15.66030644  4227
STARLINK-3810           
1 52261U 22041A   22135.91667824 -.00717954  00000+0 -77693-2 0  9999
2 52261  53.2173 255.0328 0001439  37.4759 316.5694 15.65172816  1306
STARLINK-3761           
1 52262U 22041B   22135.91667824 -.00717831  00000+0 -77711-2 0  9995
2 52262  53.2172 255.0280 0001282  45.5783 307.1048 15.65163593  1307
STARLINK-3786           
1 52263U 22041C   22135.91667824 -.00717780  00000+0 -77689-2 0  9993
2 52263  53.2173 255.0287 0001365  41.7728 311.5915 15.65168086  1309
STARLINK-3795           
1 52264U 22041D   22135.91667824 -.00717945  00000+0 -77679-2 0  9996
2 52264  53.2172 255.0357 0001371  41.3528 313.3733 15.65177472  1305
STARLINK-3740           
1 52265U 22041E   22135.91667824 -.00717925  00000+0 -77660-2 0  9995
2 52265  53.2173 255.0402 0001465  36.2189 319.1881 15.65182094  1302
STARLINK-3739           
1 52266U 22041F   22135.91667824 -.00717876  00000+0 -77641-2 0  9990
2 52266  53.2173 255.0435 0001417  39.0331 317.0548 15.65186704  1305
STARLINK-3748           
1 52267U 22041G   22135.91667824 -.00717877  00000+0 -77624-2 0  9993
2 52267  53.2173 255.0478 0001524  34.7375 322.0311 15.65191340  1308
STARLINK-3746           
1 52268U 22041H   22135.91667824 -.00717249  00000+0 -77508-2 0  9998
2 52268  53.2173 255.0588 0001520  32.1642 326.6466 15.65204899  1301
STARLINK-3791           
1 52269U 22041J   22135.91667824 -.00717860  00000+0 -77612-2 0  9994
2 52269  53.2173 255.0516 0001338  43.0598 314.3895 15.65195990  1302
STARLINK-3804           
1 52270U 22041K   22135.91667824 -.00717795  00000+0 -77571-2 0  9997
2 52270  53.2173 255.0602 0001438  38.7434 321.2699 15.65205918  1302
STARLINK-3788           
1 52271U 22041L   22135.91667824 -.00717736  00000+0 -77586-2 0  9999
2 52271  53.2173 255.0554 0001214  51.8439 306.2861 15.65200581  1307
STARLINK-3781           
1 52272U 22041M   22135.91667824 -.00717754  00000+0 -77540-2 0  9990
2 52272  53.2173 255.0625 0001340  42.4955 318.8790 15.65215059  1313
STARLINK-3782           
1 52273U 22041N   22135.91667824 -.00053981  00000+0 -38164-3 0  9996
2 52273  53.2148 254.9053 0002527  18.2360  56.9530 15.73257698  5048
STARLINK-3790           
1 52274U 22041P   22135.91667824 -.00717681  00000+0 -77485-2 0  9999
2 52274  53.2173 255.0648 0001510  35.5141 327.9021 15.65228651  1308
STARLINK-3784           
1 52275U 22041Q   22135.91667824 -.00717693  00000+0 -77546-2 0  9991
2 52275  53.2173 255.0604 0001395  39.3015 321.3925 15.65210419  1319
STARLINK-3778           
1 52276U 22041R   22135.91667824 -.00717571  00000+0 -77448-2 0  9998
2 52276  53.2173 255.0671 0001333  42.6082 322.1688 15.65237768  1307
STARLINK-3787           
1 52277U 22041S   22135.91667824 -.00717716  00000+0 -77521-2 0  9992
2 52277  53.2173 255.0627 0001363  42.3113 319.7439 15.65219546  1315
STARLINK-3780           
1 52278U 22041T   22135.91667824 -.00717547  00000+0 -77435-2 0  9999
2 52278  53.2173 255.0709 0001147  55.5887 309.8685 15.65242427  1307
STARLINK-3686           
1 52279U 22041U   22135.91667824 -.00717701  00000+0 -77504-2 0  9999
2 52279  53.2173 255.0651 0001404  39.5354 323.2002 15.65224139  1315
STARLINK-3764           
1 52280U 22041V   22135.91667824 -.00717593  00000+0 -77388-2 0  9990
2 52280  53.2173 255.0822 0001532  34.0661 333.4315 15.65256320  1306
STARLINK-3779           
1 52281U 22041W   22135.91667824 -.00717734  00000+0 -77478-2 0  9998
2 52281  53.2173 255.0674 0001462  37.7281 326.3684 15.65233294  1307
STARLINK-3783           
1 52282U 22041X   22135.91667824 -.00062376  00000+0 -44250-3 0  9997
2 52282  53.2140 254.8870 0002552  15.1932  68.3162 15.73237446  5042
STARLINK-3789           
1 52283U 22041Y   22135.91667824 -.00717606  00000+0 -77421-2 0  9996
2 52283  53.2173 255.0749 0001425  38.4278 327.7096 15.65247048  1309
STARLINK-3561           
1 52284U 22041Z   22135.91667824  .00051316  00000+0  36772-3 0  9999
2 52284  53.2138 254.8836 0002655  18.7893  65.9384 15.73203799  5045
STARLINK-3775           
1 52285U 22041AA  22135.91667824 -.00717579  00000+0 -77406-2 0  9990
2 52285  53.2173 255.0786 0001313  44.8522 321.9654 15.65251686  1300
STARLINK-3802           
1 52286U 22041AB  22135.91667824 -.00029534  00000+0 -20632-3 0  9998
2 52286  53.2142 254.8819 0002503  16.5753  69.3462 15.73243239  5044
STARLINK-3822           
1 52287U 22041AC  22135.91667824 -.00717542  00000+0 -77373-2 0  9995
2 52287  53.2173 255.0862 0001305  45.1509 323.0268 15.65260965  1301
STARLINK-3776           
1 52288U 22041AD  22135.91667824  .00012047  00000+0  90140-4 0  9991
2 52288  53.2143 254.8806 0002506  15.8702  70.5967 15.73198486  5049
STARLINK-3751           
1 52289U 22041AE  22135.91667824  .00004433  00000+0  35967-4 0  9998
2 52289  53.2144 254.8859 0002738  13.7811  70.3466 15.73219493  1303
STARLINK-3772           
1 52290U 22041AF  22135.91667824 -.00039972  00000+0 -28089-3 0  9994
2 52290  53.2137 254.8762 0002826  11.8893  76.3854 15.73263300  1300
STARLINK-3773           
1 52291U 22041AG  22135.91667824 -.00062847  00000+0 -44526-3 0  9996
2 52291  53.2143 254.8834 0002523  14.1937  71.0977 15.73271122  5041
STARLINK-3753           
1 52292U 22041AH  22135.91667824 -.00023277  00000+0 -16153-3 0  9996
2 52292  53.2142 254.8739 0002814  21.4243  68.0505 15.73243893  1301
STARLINK-3771           
1 52293U 22041AJ  22135.91667824 -.00060438  00000+0 -42874-3 0  9996
2 52293  53.2145 254.8800 0002642  15.6478  71.4545 15.73224834  5049
STARLINK-3777           
1 52294U 22041AK  22135.91667824 -.00045493  00000+0 -32058-3 0  9994
2 52294  53.2143 254.8732 0002665  17.6230  72.4197 15.73258969  5045
STARLINK-3765           
1 52295U 22041AL  22135.91667824 -.00045672  00000+0 -32174-3 0  9993
2 52295  53.2142 254.8782 0002850  13.5735  74.1136 15.73266723  5040
STARLINK-3766           
1 52296U 22041AM  22135.91667824 -.00115441  00000+0 -82636-3 0  9994
2 52296  53.2144 254.8699 0002668  18.6660  73.1681 15.73280551  1304
STARLINK-3758           
1 52297U 22041AN  22135.91667824  .00024515  00000+0  17894-3 0  9998
2 52297  53.2143 254.8760 0002710  15.6397  73.2576 15.73150045  1303
STARLINK-3760           
1 52298U 22041AP  22135.91667824 -.00005344  00000+0 -33626-4 0  9992
2 52298  53.2145 254.8682 0002712  15.3717  77.0540 15.73221167  5035
STARLINK-3759           
1 52299U 22041AQ  22135.91667824  .00019243  00000+0  14127-3 0  9998
2 52299  53.2148 254.8715 0002712  13.9848  77.2694 15.73188694  1300
STARLINK-3769           
1 52300U 22041AR  22135.91667824  .00049574  00000+0  35517-3 0  9997
2 52300  53.2147 254.8657 0002554  19.4665  74.1522 15.73223284  5045
STARLINK-3768           
1 52301U 22041AS  22135.91667824 -.00053663  00000+0 -37972-3 0  9991
2 52301  53.2144 254.8719 0002589  17.0045  73.6893 15.73234520  1301
STARLINK-3564           
1 52302U 22041AT  22135.91667824  .00045319  00000+0  32600-3 0  9992
2 52302  53.2144 254.8618 0002664  14.7470  80.6886 15.73166885  5032
STARLINK-3742           
1 52303U 22041AU  22135.91667824 -.00006733  00000+0 -43500-4 0  9994
2 52303  53.2143 254.8670 0002807  13.8168  79.2543 15.73235574  1305
STARLINK-3744           
1 52304U 22041AV  22135.91667824 -.00009600  00000+0 -64079-4 0  9995
2 52304  53.2145 254.8603 0002738  14.9411  81.0961 15.73182713  1301
STARLINK-3724           
1 52305U 22041AW  22135.91667824 -.00047928  00000+0 -33850-3 0  9993
2 52305  53.2147 254.8649 0002643  20.2466  73.9376 15.73229570  1302
STARLINK-3747           
1 52306U 22041AX  22135.91667824 -.00643907  00000+0 -48894-2 0  9996
2 52306  53.2154 254.8604 0002520  23.7291  72.8256 15.73452039  1303
STARLINK-3755           
1 52307U 22041AY  22135.91667824  .00057025  00000+0  40840-3 0  9999
2 52307  53.2147 254.8635 0002713  19.2969  75.5384 15.73172825  5034
STARLINK-3745           
1 52308U 22041AZ  22135.91667824 -.00028264  00000+0 -19715-3 0  9992
2 52308  53.2145 254.8565 0002603  19.0192  78.7808 15.73251528  1309
STARLINK-3756           
1 52309U 22041BA  22135.91667824 -.00678638  00000+0 -51799-2 0  9996
2 52309  53.2157 254.8600 0002983  16.4922  80.6882 15.73423522  5040
STARLINK-3688           
1 52310U 22041BB  22135.91667824 -.00051217  00000+0 -36189-3 0  9993
2 52310  53.2146 254.8538 0002740  17.1651  81.8688 15.73247752  5044
STARLINK-3750           
1 52311U 22041BC  22135.91667824 -.00095790  00000+0 -68416-3 0  9996
2 52311  53.2147 254.8559 0002746  20.7410  77.6501 15.73252437  5041
STARLINK-3752           
1 52312U 22041BD  22135.91667824 -.00010160  00000+0 -67949-4 0  9996
2 52312  53.2147 254.8522 0002639  17.3135  82.3274 15.73227084  5049
STARLINK-3749           
1 52313U 22041BE  22135.91667824 -.00005947  00000+0 -38003-4 0  9993
2 52313  53.2131 254.8514 0002424  18.5178  81.7215 15.73176312  1306
FALCON 9 DEB            
1 52314U 22041BF  22135.78072828  .00428748  89313-4  83286-3 0  9990
2 52314  53.2069 252.6420 0016962 352.4700   7.6074 15.99488388  3840
FALCON 9 DEB            
1 52315U 22041BG  22135.71508707  .00376156  70409-4  74915-3 0  9994
2 52315  53.2069 252.9426 0016990 357.8189   2.2765 15.99066498  3832
FALCON 9 DEB            
1 52316U 22041BH  22135.56836043  .00463386  10550-3  81555-3 0  9995
2 52316  53.2050 253.4426 0013789 350.2046   9.8715 16.01285039  3815
FALCON 9 DEB            
1 52317U 22041BJ  22135.86790453  .00572716  16427-3  87157-3 0  9994
2 52317  53.2069 251.7536 0013095 358.2048   1.8936 16.03738979  3869
CREW DRAGON 4           
1 52318U 22042A   22135.50925521  .00043869  00000+0  78692-3 0  9995
2 52318  51.6394 138.4135 0005265 123.0500 342.8115 15.49459554340117
